{
    "links": {
        "self": "http://www.neowsapp.com/rest/v1/neo/3092266?api_key=iIulBulltgU6a56xZRHN4H3l9WmuAYTsLGpBGhQ2"
    },
    "id": "3092266",
    "neo_reference_id": "3092266",
    "name": "(2000 LD3)",
    "designation": "2000 LD3",
    "nasa_jpl_url": "http://ssd.jpl.nasa.gov/sbdb.cgi?sstr=3092266",
    "absolute_magnitude_h": 19.6,
    "estimated_diameter": {
        "kilometers": {
            "estimated_diameter_min": 0.3195618867,
            "estimated_diameter_max": 0.7145621017
        },
        "meters": {
            "estimated_diameter_min": 319.5618867213,
            "estimated_diameter_max": 714.5621017269
        },
        "miles": {
            "estimated_diameter_min": 0.1985664891,
            "estimated_diameter_max": 0.4440081677
        },
        "feet": {
            "estimated_diameter_min": 1048.4314204307,
            "estimated_diameter_max": 2344.3639258298
        }
    },
    "is_potentially_hazardous_asteroid": false,
    "close_approach_data": [
        {
            "close_approach_date": "2000-05-29",
            "close_approach_date_full": "2000-May-29 02:58",
            "epoch_date_close_approach": 959569080000,
            "relative_velocity": {
                "kilometers_per_second": "30.5204181778",
                "kilometers_per_hour": "109873.5054399698",
                "miles_per_hour": "68271.1234218524"
            },
            "miss_distance": {
                "astronomical": "0.1464195351",
                "lunar": "56.9571991539",
                "kilometers": "21904050.577350237",
                "miles": "13610545.8993657906"
            },
            "orbiting_body": "Earth"
        }
    ],
    "orbital_data": {
        "orbit_id": "11",
        "orbit_determination_date": "2017-04-06 09:16:58",
        "first_observation_date": "2000-06-03",
        "last_observation_date": "2000-06-15",
        "data_arc_in_days": 12,
        "observations_used": 41,
        "orbit_uncertainty": "9",
        "minimum_orbit_intersection": ".130984",
        "jupiter_tisserand_invariant": "4.175",
        "epoch_osculation": "2451701.5",
        "eccentricity": ".7409139926398867",
        "semi_major_axis": "1.44043818592772",
        "inclination": "37.18962470477305",
        "ascending_node_longitude": "74.28389593517866",
        "orbital_period": "631.4520330021144",
        "perihelion_distance": ".3731973784410575",
        "perihelion_argument": "47.18567287756679",
        "aphelion_distance": "2.507678993414382",
        "perihelion_time": "2451642.825404295958",
        "mean_anomaly": "33.45124150290667",
        "mean_motion": ".570114563236816",
        "equinox": "J2000",
        "orbit_class": {
            "orbit_class_type": "APO",
            "orbit_class_description": "Near-Earth asteroid orbits which cross the Earth’s orbit similar to that of 1862 Apollo",
            "orbit_class_range": "a (semi-major axis) > 1.0 AU; q (perihelion) < 1.017 AU"
        }
    },
    "is_sentry_object": false
}